satname,norad_id,inclination_deg,eccentricity,mean_motion_rev_per_day,perigee_km,apogee_km,l1,l2
STARLINK-1316,45415,53.153,0.0001854,15.42475159,437.5430741018972,440.0707969131827,1 45415U 20019BH  26199.49628815  .00016163  00000+0  37611-3 0  9998,2 45415  53.1530 235.9657 0001854 325.1920  34.8964 15.42475159350101
STARLINK-1286,45417,53.0422,0.0006926,15.68725285,357.87750462568965,367.2146988582235,1 45417U 20019BK  26199.44325621  .00040296  00000+0  34931-3 0  9990,2 45417  53.0422 214.6498 0006926  30.3072 329.8344 15.68725285350629
STARLINK-1308,45419,53.0429,0.0003171,15.69617895,357.8536723851321,362.12699273944236,1 45419U 20019BM  26199.30809902  .00031577  00000+0  26545-3 0  9990,2 45419  53.0429 234.3318 0003171 130.6615 229.4678 15.69617895350087
STARLINK-1329,45531,53.0386,0.0003525,15.78925317,331.1185368196857,335.85022989495155,1 45531U 20025A   26199.14846847  .00060623  00000+0  33697-3 0  9993,2 45531  53.0386 156.3410 0003525  41.3073 318.8213 15.78925317345947
STARLINK-1338,45532,53.0405,0.0002922,15.75504828,341.23104507729204,345.1589915087825,1 45532U 20025B   26199.20809126  .00047135  00000+0  30630-3 0  9997,2 45532  53.0405 163.8385 0002922  82.0893 278.0458 15.75504828345840
STARLINK-1350,45535,53.0703,0.0002014,15.40508802,443.232518509084,445.9807196388465,1 45535U 20025E   26199.81100476  .00027485  00000+0  67461-3 0  9997,2 45535  53.0703 135.7388 0002014  87.6400 272.4835 15.40508802346332
STARLINK-1362,45538,53.1537,0.0005511,15.40754497,440.1216638280712,447.64089237419466,1 45538U 20025H   26199.31971558  .00032514  00000+0  78906-3 0  9997,2 45538  53.1537 209.6261 0005511   1.2789 358.8230 15.40754497345249
STARLINK-1368,45540,53.1537,0.0004323,15.41020425,440.14760325257885,446.045241669638,1 45540U 20025K   26199.26316262  .00028342  00000+0  68355-3 0  9990,2 45540  53.1537 210.2040 0004323   1.2813 358.8202 15.41020425345228
STARLINK-1371,45542,53.0408,0.0002632,15.72358223,350.38777414903325,353.93060206245264,1 45542U 20025M   26199.33608753  .00040456  00000+0  30179-3 0  9992,2 45542  53.0408 173.9528 0002632  69.9247 290.2053 15.72358223345716
STARLINK-1372,45543,53.1547,0.0004626,15.41478881,438.58899577132706,444.8987495547153,1 45543U 20025N   26199.40461525  .00028462  00000+0  67603-3 0  9990,2 45543  53.1547 208.9047 0004626 354.6737   5.4219 15.41478881344358
STARLINK-1373,45544,53.0415,0.000326,15.74166011,344.81304525675114,349.1978381287354,1 45544U 20025P   26199.29561706  .00044007  00000+0  30341-3 0  9992,2 45544  53.0415 168.7149 0003260  76.4225 283.7156 15.74166011345786
STARLINK-1327,45555,53.039,0.0002424,15.76281974,339.35693277495284,342.6143634347545,1 45555U 20025AA  26199.83494682  .00050521  00000+0  31694-3 0  9992,2 45555  53.0390 143.0499 0002424 106.0926 254.0360 15.76281974346184
STARLINK-1356,45564,53.0412,0.0004637,15.68603853,359.7681636396919,366.0197957702703,1 45564U 20025AK  26199.62013363  .00031781  00000+0  27840-3 0  9997,2 45564  53.0412 158.9534 0004637  60.3496 299.7981 15.68603853345949
STARLINK-1357,45565,53.042,0.0001278,15.74170644,346.1327748245076,347.8517178598722,1 45565U 20025AL  26199.77895772  .00043140  00000+0  29754-3 0  9994,2 45565  53.0420 113.4243 0001278 237.9326 122.1568 15.74170644346602
STARLINK-1361,45567,53.0397,0.0002465,15.72560585,349.92291637190374,353.24066773638606,1 45567U 20025AN  26199.88143529  .00041351  00000+0  30571-3 0  9995,2 45567  53.0397 155.3494 0002465  90.4776 269.6524 15.72560585346020
STARLINK-1376,45570,53.1545,0.0002822,15.41983804,438.3308599917309,442.17916044229787,1 45570U 20025AR  26199.69449425  .00027705  00000+0  64754-3 0  9999,2 45570  53.1545 183.8116 0002822  19.1057 341.0054 15.41983804345632
STARLINK-1320,45572,53.0322,0.0002933,16.05884639,256.21048687495386,260.10333688366336,1 45572U 20025AT  26199.85652530  .00352250  68467-4  47618-3 0  9994,2 45572  53.0322  45.0529 0002933 236.8995 123.1755 16.05884639347574
STARLINK-1321,45573,53.0405,0.0001971,15.7296638,349.09811771220757,351.75051658342727,1 45573U 20025AU  26199.11476532  .00043987  00000+0  31928-3 0  9995,2 45573  53.0405 142.8949 0001971 105.3321 254.7915 15.72966380345825
STARLINK-1331,45578,53.0435,0.0001939,15.72739688,349.76607040020554,352.3756572097891,1 45578U 20025AZ  26199.84323918  .00041140  00000+0  30189-3 0  9996,2 45578  53.0435 146.2718 0001939  91.6273 268.4967 15.72739688346157
STARLINK-1333,45580,53.1549,0.0004542,15.38954035,446.10010089203297,452.30205480194945,1 45580U 20025BB  26199.36836051  .00027115  00000+0  70035-3 0  9993,2 45580  53.1549 187.7458 0004542  14.4108 345.7026 15.38954035345556
STARLINK-1335,45581,53.1524,0.0003656,15.40477591,442.20434525588735,447.1932027738476,1 45581U 20025BC  26199.22431437  .00028988  00000+0  71151-3 0  9997,2 45581  53.1524 184.6555 0003656 348.0428  12.0490 15.40477591345571
STARLINK-1337,45582,53.0407,0.0001639,15.80709222,327.33463836143983,329.533052284537,1 45582U 20025BD  26199.80336025  .00067022  00000+0  34299-3 0  9993,2 45582  53.0407 133.2893 0001639 136.9879 223.1270 15.80709222346316
STARLINK-1347,45586,53.0361,0.0001391,15.73071639,349.18826036012706,351.0600626152527,1 45586U 20025BH  26199.71551966  .00042842  00000+0  30974-3 0  9999,2 45586  53.0361 106.2208 0001391  91.8940 268.2237 15.73071639346681
STARLINK-1364,45589,53.0398,0.0004501,15.7377792,345.08351794239115,351.138486393942,1 45589U 20025BL  26199.57608228  .00043865  00000+0  30746-3 0  9993,2 45589  53.0398 143.4026 0004501  65.4377 294.7110 15.73777920346154
STARLINK-1365,45590,53.0429,0.0002949,15.68759574,360.4600803812682,364.4356773428217,1 45590U 20025BM  26199.34992893  .00032457  00000+0  28246-3 0  9991,2 45590  53.0429 180.5291 0002949  54.1534 305.9755 15.68759574345632
STARLINK-1443,45660,53.1318,0.0002613,15.35531032,457.55700465608516,461.13027203768524,1 45660U 20035D   26199.63903593  .00023924  00000+0  69163-3 0  9993,2 45660  53.1318 175.9599 0002613  62.2466 297.8801 15.35531032338813
STARLINK-1446,45663,53.0204,0.000242,15.49958094,415.20415667134694,418.492929674243,1 45663U 20035G   26199.69824872  .00018764  00000+0  33685-3 0  9990,2 45663  53.0204  93.8782 0002420  38.9069 321.2112 15.49958094339944
STARLINK-1448,45665,53.0396,0.0001987,15.77951116,334.9123807639626,337.58067677829695,1 45665U 20035J   26199.86372490  .00059628  00000+0  34641-3 0  9992,2 45665  53.0396 128.6694 0001987 121.9494 238.1719 15.77951116339464
STARLINK-1451,45668,53.0503,0.0002614,15.15927508,516.3614677872574,519.9668540341818,1 45668U 20035M   26199.26388957  .00013381  00000+0  70445-3 0  9992,2 45668  53.0503 193.7292 0002614  23.1123 336.9987 15.15927508338513
STARLINK-1452,45669,53.0215,0.0006898,15.65131403,368.2040344279394,377.5177110932,1 45669U 20035N   26199.14884936  .00028954  00000+0  29207-3 0  9990,2 45669  53.0215 110.6237 0006898  84.0298 276.1502 15.65131403339669
STARLINK-1453,45670,53.0356,0.0002017,15.78929777,332.1180129979939,334.8254759655183,1 45670U 20035P   26199.87979080  .00067290  00000+0  37332-3 0  9991,2 45670  53.0356  88.6817 0002017 201.2336 158.8600 15.78929777339927
STARLINK-1454,45671,53.0423,0.0001161,15.76329376,340.0708718712913,341.63102087243897,1 45671U 20035Q   26199.84648162  .00058241  00000+0  36370-3 0  9990,2 45671  53.0423 130.4670 0001161 103.8116 256.3033 15.76329376339435
STARLINK-1456,45673,53.039,0.0001394,15.72459484,350.9320833267793,352.80840934705793,1 45673U 20035S   26199.82101353  .00041198  00000+0  30593-3 0  9990,2 45673  53.0390 125.9780 0001394 106.1566 253.9605 15.72459484339511
STARLINK-1458,45675,53.042,0.0001507,15.67475826,365.11133319473174,367.14405457346857,1 45675U 20035U   26199.91668980  .01405184  00000+0  11440-1 0  9994,2 45675  53.0420 142.6998 0001507  78.7621 140.3017 15.67475826  5783
STARLINK-1460,45676,53.1551,0.0004399,15.38680022,447.00790717564996,453.01531232250727,1 45676U 20035V   26199.34924892  .00030090  00000+0  78276-3 0  9990,2 45676  53.1551 175.0830 0004399  38.9228 321.2092 15.38680022338762
STARLINK-1392,45677,53.151,0.0005322,15.42199804,435.98993145926033,443.24675024406406,1 45677U 20035W   26199.34185500  .00022244  00000+0  51827-3 0  9991,2 45677  53.1510 172.7444 0005322  30.5311 329.6004 15.42199804338832
STARLINK-1394,45679,53.038,0.0001132,15.70872312,355.6403595132233,357.1650593034328,1 45679U 20035Y   26199.78760120  .00033939  00000+0  27047-3 0  9998,2 45679  53.0380 116.7323 0001132 113.5174 246.5962 15.70872312339638
STARLINK-1402,45685,53.0391,0.0001024,15.67894247,364.2372644900879,365.61824415177307,1 45685U 20035AE  26199.17946914  .00032370  00000+0  29185-3 0  9998,2 45685  53.0391 112.2733 0001024 131.9932 228.1171 15.67894247339656
STARLINK-1404,45686,53.1544,0.00049,15.48326689,418.28887938000844,424.9526419854783,1 45686U 20035AF  26199.88443836  .00033823  00000+0  63475-3 0  9996,2 45686  53.1544 150.0265 0004900  22.8565 337.2660 15.48326689339209
STARLINK-1413,45689,53.1547,0.0004843,15.38375643,447.6049379735314,454.2195550737142,1 45689U 20035AJ  26199.58698813  .00027355  00000+0  71983-3 0  9999,2 45689  53.1547 158.6537 0004843  37.7061 322.4282 15.38375643338975
STARLINK-1417,45693,53.0495,0.0002877,15.18584989,508.134506719226,512.098007643408,1 45693U 20035AN  26199.81980610  .00021268  00000+0  10281-2 0  9999,2 45693  53.0495 177.1005 0002877 332.6820  27.4022 15.18584989338788
STARLINK-1420,45695,53.0419,0.0001192,15.75283512,343.0232782658559,344.625793896058,1 45695U 20035AQ  26199.45173919  .00050900  00000+0  33353-3 0  9998,2 45695  53.0419 100.4984 0001192 174.5141 185.5891 15.75283512339837
STARLINK-1422,45696,53.1546,0.0001857,15.40219243,444.1945606549152,446.7288452131852,1 45696U 20035AR  26199.30012795  .00029191  00000+0  72261-3 0  9996,2 45696  53.1546 159.6207 0001857  90.3239 269.7979 15.40219243339019
